{"type": "FeatureCollection", "features": [{"type": "Feature", "properties": {"norad_id": 24946, "name": "IRIDIUM 33", "group": "iridium-33-debris", "lat": -65.12686673612292, "lon": -108.10579961589407, "alt_km": 780.9829177711754, "timestamp": "2025-12-22T15:43:49.393179+00:00", "meta": {"OBJECT_NAME": "IRIDIUM 33", "OBJECT_ID": "1997-051C", "EPOCH": "2025-12-22T04:33:00.643392", "MEAN_MOTION": 14.35043647, "ECCENTRICITY": 0.00081627, "INCLINATION": 86.3861, "RA_OF_ASC_NODE": 64.2549, "ARG_OF_PERICENTER": 169.1562, "MEAN_ANOMALY": 190.9812, "EPHEMERIS_TYPE": 0, "CLASSIFICATION_TYPE": "U", "NORAD_CAT_ID": 24946, "ELEMENT_SET_NO": 999, "REV_AT_EPOCH": 47970, "BSTAR": 0.00010632795, "MEAN_MOTION_DOT": 3.23e-06, "MEAN_MOTION_DDOT": 0}, "tle": {"line1": "1 24946U 97051C   25356.18959078  .00000323  00000+0  10633-3 0  9998", "line2": "2 24946  86.3861  64.2549 0008162 169.1562 190.9812 14.35043647479700"}}, "geometry": {"type": "Point", "coordinates": [-108.10579961589407, -65.12686673612292]}}, {"type": "Feature", "properties": {"norad_id": 33773, "name": "IRIDIUM 33 DEB", "group": "iridium-33-debris", "lat": 44.30207742843852, "lon": -127.13497884030485, "alt_km": 735.1050934375826, "timestamp": "2025-12-22T15:43:49.393224+00:00", "meta": {"OBJECT_NAME": "IRIDIUM 33 DEB", "OBJECT_ID": "1997-051L", "EPOCH": "2025-12-22T03:27:28.205280", "MEAN_MOTION": 14.43275908, "ECCENTRICITY": 0.00131568, "INCLINATION": 86.4, "RA_OF_ASC_NODE": 56.6042, "ARG_OF_PERICENTER": 119.239, "MEAN_ANOMALY": 241.0128, "EPHEMERIS_TYPE": 0, "CLASSIFICATION_TYPE": "U", "NORAD_CAT_ID": 33773, "ELEMENT_SET_NO": 999, "REV_AT_EPOCH": 88483, "BSTAR": 0.00026609995, "MEAN_MOTION_DOT": 9.16e-06, "MEAN_MOTION_DDOT": 0}, "tle": {"line1": "1 33773U 97051L   25356.14407645  .00000916  00000+0  26610-3 0  9990", "line2": "2 33773  86.4000  56.6042 0013156 119.2390 241.0128 14.43275908884839"}}, "geometry": {"type": "Point", "coordinates": [-127.13497884030485, 44.30207742843852]}}, {"type": "Feature", "properties": {"norad_id": 33775, "name": "IRIDIUM 33 DEB", "group": "iridium-33-debris", "lat": 24.524802678840743, "lon": -136.34310791517714, "alt_km": 743.6982456471014, "timestamp": "2025-12-22T15:43:49.393242+00:00", "meta": {"OBJECT_NAME": "IRIDIUM 33 DEB", "OBJECT_ID": "1997-051N", "EPOCH": "2025-12-22T05:20:09.260160", "MEAN_MOTION": 14.41487811, "ECCENTRICITY": 0.00151311, "INCLINATION": 86.3626, "RA_OF_ASC_NODE": 45.5049, "ARG_OF_PERICENTER": 126.3142, "MEAN_ANOMALY": 302.8171, "EPHEMERIS_TYPE": 0, "CLASSIFICATION_TYPE": "U", "NORAD_CAT_ID": 33775, "ELEMENT_SET_NO": 999, "REV_AT_EPOCH": 88277, "BSTAR": 0.00028923082, "MEAN_MOTION_DOT": 9.59e-06, "MEAN_MOTION_DDOT": 0}, "tle": {"line1": "1 33775U 97051N   25356.22232940  .00000959  00000+0  28923-3 0  9991", "line2": "2 33775  86.3626  45.5049 0015131 126.3142 302.8171 14.41487811882778"}}, "geometry": {"type": "Point", "coordinates": [-136.34310791517714, 24.524802678840743]}}, {"type": "Feature", "properties": {"norad_id": 33776, "name": "IRIDIUM 33 DEB", "group": "iridium-33-debris", "lat": -86.39281114287573, "lon": -17.27234619542361, "alt_km": 775.6568168410331, "timestamp": "2025-12-22T15:43:49.393255+00:00", "meta": {"OBJECT_NAME": "IRIDIUM 33 DEB", "OBJECT_ID": "1997-051P", "EPOCH": "2025-12-22T04:33:30.007296", "MEAN_MOTION": 14.38251333, "ECCENTRICITY": 0.00153788, "INCLINATION": 86.4034, "RA_OF_ASC_NODE": 76.8074, "ARG_OF_PERICENTER": 160.3153, "MEAN_ANOMALY": 220.5711, "EPHEMERIS_TYPE": 0, "CLASSIFICATION_TYPE": "U", "NORAD_CAT_ID": 33776, "ELEMENT_SET_NO": 999, "REV_AT_EPOCH": 88218, "BSTAR": 0.0002640439, "MEAN_MOTION_DOT": 8.23e-06, "MEAN_MOTION_DDOT": 0}, "tle": {"line1": "1 33776U 97051P   25356.18993064  .00000823  00000+0  26404-3 0  9990", "line2": "2 33776  86.4034  76.8074 0015378 160.3153 220.5711 14.38251333882186"}}, "geometry": {"type": "Point", "coordinates": [-17.27234619542361, -86.39281114287573]}}, {"type": "Feature", "properties": {"norad_id": 33777, "name": "IRIDIUM 33 DEB", "group": "iridium-33-debris", "lat": -42.274418315475295, "lon": 27.58785887202941, "alt_km": 715.3873858807219, "timestamp": "2025-12-22T15:43:49.393268+00:00", "meta": {"OBJECT_NAME": "IRIDIUM 33 DEB", "OBJECT_ID": "1997-051Q", "EPOCH": "2025-12-22T04:22:35.014080", "MEAN_MOTION": 14.55675322, "ECCENTRICITY": 0.00059714, "INCLINATION": 86.3773, "RA_OF_ASC_NODE": 31.0955, "ARG_OF_PERICENTER": 208.3162, "MEAN_ANOMALY": 151.7722, "EPHEMERIS_TYPE": 0, "CLASSIFICATION_TYPE": "U", "NORAD_CAT_ID": 33777, "ELEMENT_SET_NO": 999, "REV_AT_EPOCH": 88671, "BSTAR": 0.00077164381, "MEAN_MOTION_DOT": 3.391e-05, "MEAN_MOTION_DDOT": 0}, "tle": {"line1": "1 33777U 97051Q   25356.18234970  .00003391  00000+0  77164-3 0  9997", "line2": "2 33777  86.3773  31.0955 0005971 208.3162 151.7722 14.55675322886715"}}, "geometry": {"type": "Point", "coordinates": [27.58785887202941, -42.274418315475295]}}, {"type": "Feature", "properties": {"norad_id": 33850, "name": "IRIDIUM 33 DEB", "group": "iridium-33-debris", "lat": 19.456801527881915, "lon": -155.37972486511623, "alt_km": 743.4687743818267, "timestamp": "2025-12-22T15:43:49.393281+00:00", "meta": {"OBJECT_NAME": "IRIDIUM 33 DEB", "OBJECT_ID": "1997-051T", "EPOCH": "2025-12-21T12:54:25.325568", "MEAN_MOTION": 14.4216572, "ECCENTRICITY": 0.00130293, "INCLINATION": 86.3408, "RA_OF_ASC_NODE": 26.3962, "ARG_OF_PERICENTER": 134.7554, "MEAN_ANOMALY": 346.6938, "EPHEMERIS_TYPE": 0, "CLASSIFICATION_TYPE": "U", "NORAD_CAT_ID": 33850, "ELEMENT_SET_NO": 999, "REV_AT_EPOCH": 88279, "BSTAR": 0.00030357281, "MEAN_MOTION_DOT": 1.019e-05, "MEAN_MOTION_DDOT": 0}, "tle": {"line1": "1 33850U 97051T   25355.53779312  .00001019  00000+0  30357-3 0  9999", "line2": "2 33850  86.3408  26.3962 0013029 134.7554 346.6938 14.42165720882797"}}, "geometry": {"type": "Point", "coordinates": [-155.37972486511623, 19.456801527881915]}}, {"type": "Feature", "properties": {"norad_id": 33853, "name": "IRIDIUM 33 DEB", "group": "iridium-33-debris", "lat": 84.48283954258739, "lon": 31.883482607110572, "alt_km": 960.2545953832932, "timestamp": "2025-12-22T15:43:49.393310+00:00", "meta": {"OBJECT_NAME": "IRIDIUM 33 DEB", "OBJECT_ID": "1997-051W", "EPOCH": "2025-12-20T22:14:35.888928", "MEAN_MOTION": 13.9910315, "ECCENTRICITY": 0.0207332, "INCLINATION": 85.9999, "RA_OF_ASC_NODE": 346.2208, "ARG_OF_PERICENTER": 210.5493, "MEAN_ANOMALY": 176.3282, "EPHEMERIS_TYPE": 0, "CLASSIFICATION_TYPE": "U", "NORAD_CAT_ID": 33853, "ELEMENT_SET_NO": 999, "REV_AT_EPOCH": 85460, "BSTAR": 0.0010168, "MEAN_MOTION_DOT": 1.786e-05, "MEAN_MOTION_DDOT": 0}, "tle": {"line1": "1 33853U 97051W   25354.92680427  .00001786  00000+0  10168-2 0  9990", "line2": "2 33853  85.9999 346.2208 0207332 210.5493 176.3282 13.99103150854603"}}, "geometry": {"type": "Point", "coordinates": [31.883482607110572, 84.48283954258739]}}, {"type": "Feature", "properties": {"norad_id": 33860, "name": "IRIDIUM 33 DEB", "group": "iridium-33-debris", "lat": -83.99318267375541, "lon": -14.113889415460882, "alt_km": 673.4426797369306, "timestamp": "2025-12-22T15:43:49.393323+00:00", "meta": {"OBJECT_NAME": "IRIDIUM 33 DEB", "OBJECT_ID": "1997-051AD", "EPOCH": "2025-12-22T01:29:22.706304", "MEAN_MOTION": 14.67472484, "ECCENTRICITY": 0.00063127, "INCLINATION": 86.3821, "RA_OF_ASC_NODE": 23.1111, "ARG_OF_PERICENTER": 322.0351, "MEAN_ANOMALY": 60.1727, "EPHEMERIS_TYPE": 0, "CLASSIFICATION_TYPE": "U", "NORAD_CAT_ID": 33860, "ELEMENT_SET_NO": 999, "REV_AT_EPOCH": 88859, "BSTAR": 0.0011041679, "MEAN_MOTION_DOT": 6.276e-05, "MEAN_MOTION_DDOT": 0}, "tle": {"line1": "1 33860U 97051AD  25356.06206836  .00006276  00000+0  11042-2 0  9994", "line2": "2 33860  86.3821  23.1111 0006312 322.0351  60.1727 14.67472484888595"}}, "geometry": {"type": "Point", "coordinates": [-14.113889415460882, -83.99318267375541]}}, {"type": "Feature", "properties": {"norad_id": 33862, "name": "IRIDIUM 33 DEB", "group": "iridium-33-debris", "lat": 25.629368740991037, "lon": 34.884317471166845, "alt_km": 625.1338804039342, "timestamp": "2025-12-22T15:43:49.393335+00:00", "meta": {"OBJECT_NAME": "IRIDIUM 33 DEB", "OBJECT_ID": "1997-051AF", "EPOCH": "2025-12-21T13:59:31.257024", "MEAN_MOTION": 14.69601315, "ECCENTRICITY": 0.0052554, "INCLINATION": 86.4078, "RA_OF_ASC_NODE": 33.6303, "ARG_OF_PERICENTER": 39.5195, "MEAN_ANOMALY": 76.2806, "EPHEMERIS_TYPE": 0, "CLASSIFICATION_TYPE": "U", "NORAD_CAT_ID": 33862, "ELEMENT_SET_NO": 999, "REV_AT_EPOCH": 88953, "BSTAR": 0.0010364, "MEAN_MOTION_DOT": 6.314e-05, "MEAN_MOTION_DDOT": 0}, "tle": {"line1": "1 33862U 97051AF  25355.58300066  .00006314  00000+0  10364-2 0  9991", "line2": "2 33862  86.4078  33.6303 0052554  39.5195  76.2806 14.69601315889536"}}, "geometry": {"type": "Point", "coordinates": [34.884317471166845, 25.629368740991037]}}, {"type": "Feature", "properties": {"norad_id": 33866, "name": "IRIDIUM 33 DEB", "group": "iridium-33-debris", "lat": -46.51578995193226, "lon": 84.9289231697644, "alt_km": 896.8573066078288, "timestamp": "2025-12-22T15:43:49.393346+00:00", "meta": {"OBJECT_NAME": "IRIDIUM 33 DEB", "OBJECT_ID": "1997-051AK", "EPOCH": "2025-12-22T05:58:49.941696", "MEAN_MOTION": 14.25302348, "ECCENTRICITY": 0.01150469, "INCLINATION": 86.3001, "RA_OF_ASC_NODE": 89.0128, "ARG_OF_PERICENTER": 131.2544, "MEAN_ANOMALY": 259.1044, "EPHEMERIS_TYPE": 0, "CLASSIFICATION_TYPE": "U", "NORAD_CAT_ID": 33866, "ELEMENT_SET_NO": 999, "REV_AT_EPOCH": 86946, "BSTAR": 0.00050535562, "MEAN_MOTION_DOT": 1.294e-05, "MEAN_MOTION_DDOT": 0}, "tle": {"line1": "1 33866U 97051AK  25356.24918914  .00001294  00000+0  50536-3 0  9994", "line2": "2 33866  86.3001  89.0128 0115046 131.2544 259.1044 14.25302348869461"}}, "geometry": {"type": "Point", "coordinates": [84.9289231697644, -46.51578995193226]}}]}